{
  "type": "FeatureCollection",
  "features": [
    {
      "type": "Feature",
      "properties": {
        "norad_id": 40115,
        "name": "WORLDVIEW-3 (WV-3)",
        "group": "resource",
        "lat": 81.12613716844999,
        "lon": -56.883807838006526,
        "alt_km": 604.1794606658868,
        "timestamp": "2025-12-14T14:39:29.033514+00:00",
        "meta_object_name": "WORLDVIEW-3 (WV-3)",
        "meta_object_id": "2014-048A",
        "meta_epoch": "2025-12-13T22:04:11.482176",
        "meta_mean_motion": 14.85516104,
        "meta_eccentricity": 0.00048878,
        "meta_inclination": 97.8615,
        "meta_ra_of_asc_node": 60.1851,
        "meta_arg_of_pericenter": 180.5537,
        "meta_mean_anomaly": 179.5674,
        "meta_ephemeris_type": 0,
        "meta_classification_type": "U",
        "meta_norad_cat_id": 40115,
        "meta_element_set_no": 999,
        "meta_rev_at_epoch": 61441,
        "meta_bstar": 0.00017125314,
        "meta_mean_motion_dot": 1.425e-05,
        "meta_mean_motion_ddot": 0,
        "tle_line1": "1 40115U 14048A   25347.91957734  .00001425  00000+0  17125-3 0  9994",
        "tle_line2": "2 40115  97.8615  60.1851 0004887 180.5537 179.5674 14.85516104614416"
      },
      "geometry": {
        "type": "Point",
        "coordinates": [
          -56.883807838006526,
          81.12613716844999
        ]
      }
    },
    {
      "type": "Feature",
      "properties": {
        "norad_id": 40118,
        "name": "GAOFEN-2",
        "group": "resource",
        "lat": -57.84502741277266,
        "lon": -145.2092061251958,
        "alt_km": 638.5004735908606,
        "timestamp": "2025-12-14T14:39:29.033524+00:00",
        "meta_object_name": "GAOFEN-2",
        "meta_object_id": "2014-049A",
        "meta_epoch": "2025-12-14T00:36:30.566592",
        "meta_mean_motion": 14.80613086,
        "meta_eccentricity": 0.00086514,
        "meta_inclination": 98.0384,
        "meta_ra_of_asc_node": 47.1957,
        "meta_arg_of_pericenter": 109.135,
        "meta_mean_anomaly": 251.0799,
        "meta_ephemeris_type": 0,
        "meta_classification_type": "U",
        "meta_norad_cat_id": 40118,
        "meta_element_set_no": 999,
        "meta_rev_at_epoch": 61183,
        "meta_bstar": 0.0001505384,
        "meta_mean_motion_dot": 1.102e-05,
        "meta_mean_motion_ddot": 0,
        "tle_line1": "1 40118U 14049A   25348.02535378  .00001102  00000+0  15054-3 0  9998",
        "tle_line2": "2 40118  98.0384  47.1957 0008651 109.1350 251.0799 14.80613086611839"
      },
      "geometry": {
        "type": "Point",
        "coordinates": [
          -145.2092061251958,
          -57.84502741277266
        ]
      }
    },
    {
      "type": "Feature",
      "properties": {
        "norad_id": 40143,
        "name": "YAOGAN-21",
        "group": "resource",
        "lat": 47.613733609923734,
        "lon": -140.22286651127513,
        "alt_km": 491.23889671483175,
        "timestamp": "2025-12-14T14:39:29.033535+00:00",
        "meta_object_name": "YAOGAN-21",
        "meta_object_id": "2014-053A",
        "meta_epoch": "2025-12-13T23:53:49.765632",
        "meta_mean_motion": 15.23698524,
        "meta_eccentricity": 0.00096012,
        "meta_inclination": 97.1764,
        "meta_ra_of_asc_node": 31.2535,
        "meta_arg_of_pericenter": 37.5147,
        "meta_mean_anomaly": 322.6759,
        "meta_ephemeris_type": 0,
        "meta_classification_type": "U",
        "meta_norad_cat_id": 40143,
        "meta_element_set_no": 999,
        "meta_rev_at_epoch": 62673,
        "meta_bstar": 0.00030205773,
        "meta_mean_motion_dot": 7.193e-05,
        "meta_mean_motion_ddot": 0,
        "tle_line1": "1 40143U 14053A   25347.99571488  .00007193  00000+0  30206-3 0  9990",
        "tle_line2": "2 40143  97.1764  31.2535 0009601  37.5147 322.6759 15.23698524626733"
      },
      "geometry": {
        "type": "Point",
        "coordinates": [
          -140.22286651127513,
          47.613733609923734
        ]
      }
    },
    {
      "type": "Feature",
      "properties": {
        "norad_id": 40275,
        "name": "YAOGAN-22",
        "group": "resource",
        "lat": 6.75823238965483,
        "lon": 130.7673844494308,
        "alt_km": 1206.1231317516958,
        "timestamp": "2025-12-14T14:39:29.033545+00:00",
        "meta_object_name": "YAOGAN-22",
        "meta_object_id": "2014-063A",
        "meta_epoch": "2025-12-13T22:11:45.737952",
        "meta_mean_motion": 13.1552268,
        "meta_eccentricity": 0.00059581,
        "meta_inclination": 100.7422,
        "meta_ra_of_asc_node": 131.3611,
        "meta_arg_of_pericenter": 245.3119,
        "meta_mean_anomaly": 114.7372,
        "meta_ephemeris_type": 0,
        "meta_classification_type": "U",
        "meta_norad_cat_id": 40275,
        "meta_element_set_no": 999,
        "meta_rev_at_epoch": 53545,
        "meta_bstar": 2.7527431e-05,
        "meta_mean_motion_dot": -3.6e-07,
        "meta_mean_motion_ddot": 0,
        "tle_line1": "1 40275U 14063A   25347.92483493 -.00000036  00000+0  27527-4 0  9991",
        "tle_line2": "2 40275 100.7422 131.3611 0005958 245.3119 114.7372 13.15522680535454"
      },
      "geometry": {
        "type": "Point",
        "coordinates": [
          130.7673844494308,
          6.75823238965483
        ]
      }
    },
    {
      "type": "Feature",
      "properties": {
        "norad_id": 40298,
        "name": "ASNARO",
        "group": "resource",
        "lat": 28.079577673318145,
        "lon": -111.53226187350924,
        "alt_km": 502.90982926857487,
        "timestamp": "2025-12-14T14:39:29.033555+00:00",
        "meta_object_name": "ASNARO",
        "meta_object_id": "2014-070A",
        "meta_epoch": "2025-12-13T23:46:10.978176",
        "meta_mean_motion": 15.19531515,
        "meta_eccentricity": 0.00056922,
        "meta_inclination": 97.3652,
        "meta_ra_of_asc_node": 63.9056,
        "meta_arg_of_pericenter": 117.6185,
        "meta_mean_anomaly": 242.5629,
        "meta_ephemeris_type": 0,
        "meta_classification_type": "U",
        "meta_norad_cat_id": 40298,
        "meta_element_set_no": 999,
        "meta_rev_at_epoch": 61588,
        "meta_bstar": 0.0004947222,
        "meta_mean_motion_dot": 0.00010456,
        "meta_mean_motion_ddot": 0,
        "tle_line1": "1 40298U 14070A   25347.99040484  .00010456  00000+0  49472-3 0  9998",
        "tle_line2": "2 40298  97.3652  63.9056 0005692 117.6185 242.5629 15.19531515615881"
      },
      "geometry": {
        "type": "Point",
        "coordinates": [
          -111.53226187350924,
          28.079577673318145
        ]
      }
    },
    {
      "type": "Feature",
      "properties": {
        "norad_id": 40310,
        "name": "YAOGAN-24",
        "group": "resource",
        "lat": -12.678044660798761,
        "lon": -62.12775281481906,
        "alt_km": 640.7814362964373,
        "timestamp": "2025-12-14T14:39:29.033568+00:00",
        "meta_object_name": "YAOGAN-24",
        "meta_object_id": "2014-072A",
        "meta_epoch": "2025-12-13T23:08:52.547712",
        "meta_mean_motion": 14.76182124,
        "meta_eccentricity": 0.00147854,
        "meta_inclination": 98.1217,
        "meta_ra_of_asc_node": 119.0637,
        "meta_arg_of_pericenter": 134.2014,
        "meta_mean_anomaly": 226.0413,
        "meta_ephemeris_type": 0,
        "meta_classification_type": "U",
        "meta_norad_cat_id": 40310,
        "meta_element_set_no": 999,
        "meta_rev_at_epoch": 59639,
        "meta_bstar": 0.00022819574,
        "meta_mean_motion_dot": 1.528e-05,
        "meta_mean_motion_ddot": 0,
        "tle_line1": "1 40310U 14072A   25347.96449708  .00001528  00000+0  22820-3 0  9992",
        "tle_line2": "2 40310  98.1217 119.0637 0014785 134.2014 226.0413 14.76182124596391"
      },
      "geometry": {
        "type": "Point",
        "coordinates": [
          -62.12775281481906,
          -12.678044660798761
        ]
      }
    },
    {
      "type": "Feature",
      "properties": {
        "norad_id": 40336,
        "name": "CBERS 4",
        "group": "resource",
        "lat": 19.23472662150549,
        "lon": 43.63259803639488,
        "alt_km": 773.4694964085065,
        "timestamp": "2025-12-14T14:39:29.033578+00:00",
        "meta_object_name": "CBERS 4",
        "meta_object_id": "2014-079A",
        "meta_epoch": "2025-12-13T23:30:43.960608",
        "meta_mean_motion": 14.3551861,
        "meta_eccentricity": 0.00016616,
        "meta_inclination": 98.3306,
        "meta_ra_of_asc_node": 45.9537,
        "meta_arg_of_pericenter": 110.3889,
        "meta_mean_anomaly": 249.7476,
        "meta_ephemeris_type": 0,
        "meta_classification_type": "U",
        "meta_norad_cat_id": 40336,
        "meta_element_set_no": 999,
        "meta_rev_at_epoch": 57738,
        "meta_bstar": 0.00012180819,
        "meta_mean_motion_dot": 3.08e-06,
        "meta_mean_motion_ddot": 0,
        "tle_line1": "1 40336U 14079A   25347.97967547  .00000308  00000+0  12181-3 0  9998",
        "tle_line2": "2 40336  98.3306  45.9537 0001661 110.3889 249.7476 14.35518610577387"
      },
      "geometry": {
        "type": "Point",
        "coordinates": [
          43.63259803639488,
          19.23472662150549
        ]
      }
    }
  ]
}